{
    "links": {
        "self": "http://www.neowsapp.com/rest/v1/neo/3429686?api_key=iIulBulltgU6a56xZRHN4H3l9WmuAYTsLGpBGhQ2"
    },
    "id": "3429686",
    "neo_reference_id": "3429686",
    "name": "(2008 TB1)",
    "designation": "2008 TB1",
    "nasa_jpl_url": "http://ssd.jpl.nasa.gov/sbdb.cgi?sstr=3429686",
    "absolute_magnitude_h": 22.2,
    "estimated_diameter": {
        "kilometers": {
            "estimated_diameter_min": 0.096506147,
            "estimated_diameter_max": 0.2157943048
        },
        "meters": {
            "estimated_diameter_min": 96.5061469579,
            "estimated_diameter_max": 215.7943048444
        },
        "miles": {
            "estimated_diameter_min": 0.059966121,
            "estimated_diameter_max": 0.134088323
        },
        "feet": {
            "estimated_diameter_min": 316.6212271853,
            "estimated_diameter_max": 707.9865871058
        }
    },
    "is_potentially_hazardous_asteroid": false,
    "close_approach_data": [
        {
            "close_approach_date": "2008-09-07",
            "close_approach_date_full": "2008-Sep-07 05:22",
            "epoch_date_close_approach": 1220764920000,
            "relative_velocity": {
                "kilometers_per_second": "15.2858182676",
                "kilometers_per_hour": "55028.9457632448",
                "miles_per_hour": "34192.8468827229"
            },
            "miss_distance": {
                "astronomical": "0.2440902146",
                "lunar": "94.9510934794",
                "kilometers": "36515376.192002902",
                "miles": "22689602.6348559676"
            },
            "orbiting_body": "Earth"
        }
    ],
    "orbital_data": {
        "orbit_id": "7",
        "orbit_determination_date": "2017-04-06 09:02:44",
        "first_observation_date": "2008-10-02",
        "last_observation_date": "2008-10-03",
        "data_arc_in_days": 1,
        "observations_used": 20,
        "orbit_uncertainty": "9",
        "minimum_orbit_intersection": ".24255",
        "jupiter_tisserand_invariant": "3.031",
        "epoch_osculation": "2454742.5",
        "eccentricity": ".5848832988458295",
        "semi_major_axis": "2.648146382524923",
        "inclination": "22.8505612845793",
        "ascending_node_longitude": "183.8327464348243",
        "orbital_period": "1574.024213812309",
        "perihelion_distance": "1.099289790487096",
        "perihelion_argument": "120.3275558574032",
        "aphelion_distance": "4.197002974562749",
        "perihelion_time": "2454679.509783108696",
        "mean_anomaly": "14.40668947903075",
        "mean_motion": ".2287131270541735",
        "equinox": "J2000",
        "orbit_class": {
            "orbit_class_type": "AMO",
            "orbit_class_description": "Near-Earth asteroid orbits similar to that of 1221 Amor",
            "orbit_class_range": "1.017 AU < q (perihelion) < 1.3 AU"
        }
    },
    "is_sentry_object": false
}